{
  "type": "FeatureCollection",
  "features": [
    {
      "type": "Feature",
      "properties": {
        "norad_id": 34434,
        "name": "COSMOS 2251 DEB",
        "group": "cosmos-2251-debris",
        "lat": -7.298890175753027,
        "lon": -177.3587707426141,
        "alt_km": 803.1834210638845,
        "timestamp": "2025-12-18T08:58:43.809127+00:00",
        "meta_object_name": "COSMOS 2251 DEB",
        "meta_object_id": "1993-036SB",
        "meta_epoch": "2025-12-17T23:34:56.105184",
        "meta_mean_motion": 13.89841083,
        "meta_eccentricity": 0.02742268,
        "meta_inclination": 74.0626,
        "meta_ra_of_asc_node": 1.2095,
        "meta_arg_of_pericenter": 137.2606,
        "meta_mean_anomaly": 249.5998,
        "meta_ephemeris_type": 0,
        "meta_classification_type": "U",
        "meta_norad_cat_id": 34434,
        "meta_element_set_no": 999,
        "meta_rev_at_epoch": 84039,
        "meta_bstar": 0.0015284505,
        "meta_mean_motion_dot": 2.523e-05,
        "meta_mean_motion_ddot": 0,
        "tle_line1": "1 34434U 93036SB  25351.98259381  .00002523  00000+0  15285-2 0  9994",
        "tle_line2": "2 34434  74.0626   1.2095 0274226 137.2606 249.5998 13.89841083840395"
      },
      "geometry": {
        "type": "Point",
        "coordinates": [
          -177.3587707426141,
          -7.298890175753027
        ]
      }
    },
    {
      "type": "Feature",
      "properties": {
        "norad_id": 34446,
        "name": "COSMOS 2251 DEB",
        "group": "cosmos-2251-debris",
        "lat": 40.43817204890014,
        "lon": -147.39736143028634,
        "alt_km": 698.9421504022321,
        "timestamp": "2025-12-18T08:58:43.809137+00:00",
        "meta_object_name": "COSMOS 2251 DEB",
        "meta_object_id": "1993-036SP",
        "meta_epoch": "2025-12-17T07:29:44.895552",
        "meta_mean_motion": 14.49358346,
        "meta_eccentricity": 0.00509341,
        "meta_inclination": 74.0421,
        "meta_ra_of_asc_node": 48.7069,
        "meta_arg_of_pericenter": 185.6751,
        "meta_mean_anomaly": 174.384,
        "meta_ephemeris_type": 0,
        "meta_classification_type": "U",
        "meta_norad_cat_id": 34446,
        "meta_element_set_no": 999,
        "meta_rev_at_epoch": 88760,
        "meta_bstar": 0.00011171629,
        "meta_mean_motion_dot": 4.05e-06,
        "meta_mean_motion_ddot": 0,
        "tle_line1": "1 34446U 93036SP  25351.31232518  .00000405  00000+0  11172-3 0  9996",
        "tle_line2": "2 34446  74.0421  48.7069 0050934 185.6751 174.3840 14.49358346887602"
      },
      "geometry": {
        "type": "Point",
        "coordinates": [
          -147.39736143028634,
          40.43817204890014
        ]
      }
    },
    {
      "type": "Feature",
      "properties": {
        "norad_id": 34449,
        "name": "COSMOS 2251 DEB",
        "group": "cosmos-2251-debris",
        "lat": 46.186561549607234,
        "lon": -138.17047354282633,
        "alt_km": 564.1381043793153,
        "timestamp": "2025-12-18T08:58:43.809147+00:00",
        "meta_object_name": "COSMOS 2251 DEB",
        "meta_object_id": "1993-036SS",
        "meta_epoch": "2025-12-17T15:23:57.465312",
        "meta_mean_motion": 14.95154657,
        "meta_eccentricity": 0.00227658,
        "meta_inclination": 74.033,
        "meta_ra_of_asc_node": 60.6699,
        "meta_arg_of_pericenter": 99.9349,
        "meta_mean_anomaly": 50.2205,
        "meta_ephemeris_type": 0,
        "meta_classification_type": "U",
        "meta_norad_cat_id": 34449,
        "meta_element_set_no": 999,
        "meta_rev_at_epoch": 88766,
        "meta_bstar": 0.001963597,
        "meta_mean_motion_dot": 0.000217,
        "meta_mean_motion_ddot": 0,
        "tle_line1": "1 34449U 93036SS  25351.64163733  .00021700  00000+0  19636-2 0  9990",
        "tle_line2": "2 34449  74.0330  60.6699 0022765  99.9349  50.2205 14.95154657887660"
      },
      "geometry": {
        "type": "Point",
        "coordinates": [
          -138.17047354282633,
          46.186561549607234
        ]
      }
    },
    {
      "type": "Feature",
      "properties": {
        "norad_id": 34451,
        "name": "COSMOS 2251 DEB",
        "group": "cosmos-2251-debris",
        "lat": 59.413067028077855,
        "lon": -132.44248373545582,
        "alt_km": 558.2784147484062,
        "timestamp": "2025-12-18T08:58:43.809157+00:00",
        "meta_object_name": "COSMOS 2251 DEB",
        "meta_object_id": "1993-036SU",
        "meta_epoch": "2025-12-17T16:24:40.204224",
        "meta_mean_motion": 14.95859562,
        "meta_eccentricity": 0.00239028,
        "meta_inclination": 74.0468,
        "meta_ra_of_asc_node": 77.8935,
        "meta_arg_of_pericenter": 94.3183,
        "meta_mean_anomaly": 266.0733,
        "meta_ephemeris_type": 0,
        "meta_classification_type": "U",
        "meta_norad_cat_id": 34451,
        "meta_element_set_no": 999,
        "meta_rev_at_epoch": 88709,
        "meta_bstar": 0.0019107949,
        "meta_mean_motion_dot": 0.00021511,
        "meta_mean_motion_ddot": 0,
        "tle_line1": "1 34451U 93036SU  25351.68379866  .00021511  00000+0  19108-2 0  9997",
        "tle_line2": "2 34451  74.0468  77.8935 0023902  94.3183 266.0733 14.95859562887094"
      },
      "geometry": {
        "type": "Point",
        "coordinates": [
          -132.44248373545582,
          59.413067028077855
        ]
      }
    },
    {
      "type": "Feature",
      "properties": {
        "norad_id": 34452,
        "name": "COSMOS 2251 DEB",
        "group": "cosmos-2251-debris",
        "lat": 9.591359574867074,
        "lon": -11.614987807518151,
        "alt_km": 521.020606839742,
        "timestamp": "2025-12-18T08:58:43.809167+00:00",
        "meta_object_name": "COSMOS 2251 DEB",
        "meta_object_id": "1993-036SV",
        "meta_epoch": "2025-12-17T15:04:39.224064",
        "meta_mean_motion": 15.1180594,
        "meta_eccentricity": 0.00655096,
        "meta_inclination": 74.0331,
        "meta_ra_of_asc_node": 172.7018,
        "meta_arg_of_pericenter": 247.9623,
        "meta_mean_anomaly": 184.9082,
        "meta_ephemeris_type": 0,
        "meta_classification_type": "U",
        "meta_norad_cat_id": 34452,
        "meta_element_set_no": 999,
        "meta_rev_at_epoch": 90736,
        "meta_bstar": 0.0006194925,
        "meta_mean_motion_dot": 0.00011116,
        "meta_mean_motion_ddot": 0,
        "tle_line1": "1 34452U 93036SV  25351.62823176  .00011116  00000+0  61949-3 0  9991",
        "tle_line2": "2 34452  74.0331 172.7018 0065509 247.9623 184.9082 15.11805940907363"
      },
      "geometry": {
        "type": "Point",
        "coordinates": [
          -11.614987807518151,
          9.591359574867074
        ]
      }
    },
    {
      "type": "Feature",
      "properties": {
        "norad_id": 34454,
        "name": "COSMOS 2251 DEB",
        "group": "cosmos-2251-debris",
        "lat": 12.956786476262803,
        "lon": 83.49078851079787,
        "alt_km": 787.4984692913395,
        "timestamp": "2025-12-18T08:58:43.809178+00:00",
        "meta_object_name": "COSMOS 2251 DEB",
        "meta_object_id": "1993-036SX",
        "meta_epoch": "2025-12-17T18:51:24.522336",
        "meta_mean_motion": 14.38816918,
        "meta_eccentricity": 0.00357516,
        "meta_inclination": 74.0588,
        "meta_ra_of_asc_node": 268.3445,
        "meta_arg_of_pericenter": 329.8769,
        "meta_mean_anomaly": 30.0328,
        "meta_ephemeris_type": 0,
        "meta_classification_type": "U",
        "meta_norad_cat_id": 34454,
        "meta_element_set_no": 999,
        "meta_rev_at_epoch": 88140,
        "meta_bstar": 0.00020253877,
        "meta_mean_motion_dot": 6.01e-06,
        "meta_mean_motion_ddot": 0,
        "tle_line1": "1 34454U 93036SX  25351.78570049  .00000601  00000+0  20254-3 0  9999",
        "tle_line2": "2 34454  74.0588 268.3445 0035751 329.8769  30.0328 14.38816918881407"
      },
      "geometry": {
        "type": "Point",
        "coordinates": [
          83.49078851079787,
          12.956786476262803
        ]
      }
    },
    {
      "type": "Feature",
      "properties": {
        "norad_id": 34459,
        "name": "COSMOS 2251 DEB",
        "group": "cosmos-2251-debris",
        "lat": 65.15813067773789,
        "lon": 26.245702817512083,
        "alt_km": 1012.9579276178811,
        "timestamp": "2025-12-18T08:58:43.809188+00:00",
        "meta_object_name": "COSMOS 2251 DEB",
        "meta_object_id": "1993-036TC",
        "meta_epoch": "2025-12-17T18:44:27.873888",
        "meta_mean_motion": 14.00508092,
        "meta_eccentricity": 0.01921123,
        "meta_inclination": 74.0788,
        "meta_ra_of_asc_node": 245.3358,
        "meta_arg_of_pericenter": 313.9843,
        "meta_mean_anomaly": 44.5585,
        "meta_ephemeris_type": 0,
        "meta_classification_type": "U",
        "meta_norad_cat_id": 34459,
        "meta_element_set_no": 999,
        "meta_rev_at_epoch": 85782,
        "meta_bstar": 0.00031905306,
        "meta_mean_motion_dot": 5.31e-06,
        "meta_mean_motion_ddot": 0,
        "tle_line1": "1 34459U 93036TC  25351.78087817  .00000531  00000+0  31905-3 0  9997",
        "tle_line2": "2 34459  74.0788 245.3358 0192112 313.9843  44.5585 14.00508092857828"
      },
      "geometry": {
        "type": "Point",
        "coordinates": [
          26.245702817512083,
          65.15813067773789
        ]
      }
    }
  ]
}